#dP2025  1 26  0  0  0.00000000      97 __u+U IGS20 FIT  IAC
## 2351      0.00000000   900.00000000 60701 0.0000000000000
+  117   C06C07C09C10C11C12C13C14C16C19C20C21C22C23C24C25C26
+        C27C28C29C30C32C33C34C35C36C37C38C39C40C41C42C43C44
+        C45E02E03E04E05E06E07E08E09E10E11E13E14E15E18E19E21
+        E24E25E26E27E29E30E31E33E34E36G01G02G03G04G05G06G07
+        G08G09G10G11G12G13G14G15G16G17G18G19G20G21G22G23G24
+        G25G26G27G28G29G30G31G32J02J03J04R01R02R03R04R05R06
+        R07R08R09R11R12R14R15R16R17R18R19R20R21R22R24  0  0
++         7  7  7  7  8  7  7  6  7  5  6  5  5  6  6  5  6
++         5  5  6  5  6  6  6  5  5  5  6  6  6  6  6  6  5
++         5  4  4  4  4  4  4  4  4  4  4  4  4  4  5  4  4
++         4  4  4  4  4  4  4  4  4  4  3  3  3  3  3  3  3
++         4  3  3  3  3  3  3  4  3  3  3  3  3  4  3  3  3
++         3  4  3  3  3  3  3  3 11 11 11  8  6  6  6  6  6
++         6  6  6  6  7  6  6  6  6  6  7  8  7  6  6  0  0
%c M  cc GPS ccc cccc cccc cccc cccc ccccc ccccc ccccc ccccc
%c cc cc ccc ccc cccc cccc cccc cccc ccccc ccccc ccccc ccccc
%f  1.2500000  1.025000000  0.00000000000  0.000000000000000
%f  0.0000000  0.000000000  0.00000000000  0.000000000000000
%i    0    0    0    0      0      0      0      0         0
%i    0    0    0    0      0      0      0      0         0
/* INFORMATION & ANALYSIS CENTER (IAC)            FINAL DATA
/* S/V CLOCKS ARE ALIGNED TO GNSS TIME                      
/* G:C1WC2W R:C1PC2P E:C1XC5X C:C2IC6I J:C1CC2S             
/* PCV:IGS20_2350 OL/AL:FES2004  NONE     YN ORB:CoN CLK:CoN
*  2025 01 26 15 15  0.00000000
PC06 -14879.981952  24401.654935 -31000.018011    713.570086
PC07 -11780.302829  40256.582541  -2504.315701    207.301127
PC09  -5958.987387  24379.081244 -33461.678904   -873.761938
PC10  -5620.041476  41272.106191   4306.123380   -414.872191
PC11 -23129.248182   2794.926120 -15294.109056    355.280860
PC12  -9482.848475 -12347.943395 -23117.883519   -208.385207
PC13   6682.084633  31707.577671  27332.778689     61.062427
PC14 -15678.131363  -4723.583971  22617.176562   -703.362157
PC16 -16605.886355  23592.719595 -30529.136955    -91.373773
PC19  14723.501907  -6433.754371 -22793.810532   -962.414308
PC20  14442.856412  13277.275857 -19822.754360   -868.627586
PC21  -5252.873721 -27075.099979   4363.728381   -904.053792
PC22   6634.750171 -23839.023391 -12927.573223    241.361908
PC23 -10248.428283  13139.599845 -22390.561504   -955.394831
PC24 -24033.476002 -13738.939858   3384.070496    678.184096
PC25 -24339.307374    229.368943 -13648.206292    628.008569
PC26 -10392.442710 -18617.301013  17960.636506   -411.209456
PC27    372.889213  18048.706977  21264.924724    428.768138
PC28 -15076.294151  20466.588401  11526.512128    335.909886
PC29  24256.484914 -10751.130753   8636.905774    394.259492
PC30  16969.661916   6069.997979  21291.750684     89.694771
PC32   5383.082499  27044.620115  -4214.121141   -896.335865
PC33 -14748.301801   6379.089441  22817.854750   -949.186147
PC34 -18233.631844  -4611.292250 -20635.680257    615.785859
PC35  14935.962898 -20948.390451 -10774.333071    142.884270
PC36  24230.794970     97.519982  13866.436753    257.157635
PC37   9522.239804  18861.150062 -18246.036894   -907.819208
PC38  -6387.648576  24550.031878  33779.117444    205.102000
PC39 -23009.503762  23492.928895 -26489.933856    -10.820953
PC40 -18197.373965  37557.971407  -4612.470909   -117.094584
PC41  -7199.706477  23172.866255  13819.801328   -882.511349
PC42 -14028.389397 -15248.487236  18753.939169   -578.567527
PC43 -24301.335608  10170.955395  -9256.819105     99.535827
PC44  -1100.481599 -18182.695616 -21146.913430    722.377090
PC45  10891.628434 -12607.768309  22375.701286   -219.096654
PE02  -2452.600814 -25482.951933  14828.007397    192.957259
PE03   8351.192680 -26888.871125   9146.059075   -169.074243
PE04   7956.207958  17426.789514 -22557.543500   -142.152852
PE05  19383.778504 -20325.397793  -9342.455199   4822.337167
PE06  14883.810844   8323.244072 -24205.817824    -75.021179
PE07 -19064.240049   1537.162763  22593.673760   -165.679580
PE08  -7296.760036 -17931.483562  22394.086495   -406.855473
PE09  18939.601258  -1548.132631 -22697.091471   -752.634071
PE10  25454.973430   8318.402244  12611.974694   -685.812431
PE11  29407.755853   2003.889492   2600.820558   -564.770834
PE13 -29346.245966  -2328.662865  -3153.373559    -29.625476
PE14  15061.871899   7564.120628  19696.682969    639.778822
PE15 -17665.580226 -12962.011198 -19895.685466   -153.374368
PE18 -10206.589583 -19342.533023 -21442.177577   1042.047527
PE19  -9793.008067  26860.006236  -7666.399323   1290.711088
PE21 -12494.200596  11882.083306 -24069.409400   -642.538205
PE24  20522.555472   9184.333260  19241.355144  -1234.133109
PE25  12802.078091 -11409.014225  24121.885400     13.652152
PE26 -23336.401522   9799.064588  15365.455008   -142.871509
PE27 -20512.469536  -9120.727340 -19293.138413   -566.427857
PE29 -19375.648789  20506.238600   8978.311759    -65.347490
PE30 -16370.769578 -24419.628734  -3383.865592  -1177.031728
PE31  16328.596028  24487.748352   3188.097770    -52.095904
PE33  -4680.985320  15766.072056  24621.005857     16.440359
PE34   4195.636305 -15812.670206 -24663.996311   -159.945057
PE36  23671.716913  -9420.685467 -15047.026346   -344.500536
PG01  -7890.344264 -14532.517057 -20781.842203     78.224926
PG02  -6418.650181 -13843.384816 -21317.709706   -258.417024
PG03 -11728.352805 -23350.685164  -5253.463726    653.133826
PG04  -3218.478903 -19800.733757  17349.510161    517.875129
PG05   1097.593335  20296.883909  16888.040291   -200.152163
PG06 -24976.585192   6167.856302   6942.675732   -145.428399
PG07 -21925.610393  -7975.395571  13641.618805    -13.382646
PG08   4081.497195 -24697.519424  -8286.941110    468.593598
PG09 -10876.751217 -11793.722865  21067.026541    543.726448
PG10  17308.581501   2003.486265 -19912.239453   -292.999202
PG11 -16935.006833  12053.613686  16539.355105   -750.376195
PG12   8337.046399  24208.847585  -7439.949547   -566.687712
PG13 -13358.590971  22725.361551  -2104.075166    694.658786
PG14 -19036.231401  -5433.783327 -17772.257634    587.214034
PG15   -376.478674  25081.586309  -9035.728418    256.191647
PG16   6009.472334 -16686.254386  19265.342293    -68.308439
PG17 -17476.590735   4229.324161 -19213.400988    456.076012
PG18  23352.250647   6220.132026  11308.537169   -656.284846
PG19 -18736.069132  12972.347845 -13399.151464    590.783577
PG20  -9176.159252  12444.758316  21691.395052    366.777048
PG21    800.844300 -15236.502534 -21258.132022    101.641555
PG22 -15487.674396   2541.183311 -21002.568774    -94.216162
PG23  19486.481436  14944.665200 -10364.053732    411.473005
PG24   4196.592931  15494.644042 -21644.055239   -459.630626
PG25  17489.001424  19783.244050   3611.670317    496.115265
PG26  13694.229587  -8154.616797  21082.785256    -64.264777
PG27  12365.435279 -23092.648714   2243.097758    -32.499671
PG28  25408.357230  -6161.156663   4686.507766   -544.966440
PG29   9722.824232  12496.619242  21259.291119   -543.589137
PG30 -26594.222976    344.103908   2605.661474   -230.452156
PG31  21219.748639 -10111.375635  12456.452071   -216.990274
PG32  17530.902194  -9671.197102 -17116.112839   -534.225178
PJ02 -21314.078679  24195.863386 -22483.968054     -0.821805
PJ03 -30022.912243  25746.836395  19642.384907     -0.314503
PJ04 -26950.570952  29555.874260  18981.487777     21.161651
PR01 -10966.886294   1774.242513  22966.046588    112.573250
PR02  -8937.229265  18557.770875  15144.258509    -38.093604
PR03  -1504.630476  25436.359642  -1717.218696    115.660390
PR04   5981.529997  18080.965678 -16946.588609    274.309585
PR05  10576.670115   1213.828941 -23165.325187    144.400669
PR06  -5689.855468 -19289.520936  15727.227978   -131.408854
PR07   1311.386414 -25355.922328   2185.937179     99.601457
PR08  -6425.223988 -17721.382251  17229.750189     -6.322883
PR09  10836.187514  -6137.824812  22263.482115    234.347499
PR11 -17775.048790 -16645.185542   7627.720128     -3.821431
PR12 -21180.121678  -7809.612462 -11848.434777     50.060786
PR14   5334.051165  15257.326996 -19722.955604     27.656908
PR15  18644.289139  16403.577398  -5805.440885     71.799751
PR16  21182.122722   7893.089459  11786.292407     32.773228
PR17  -6207.612002  13352.500580  20829.915503    160.863151
PR18  10198.250182   6634.453087  22429.899849    183.885505
PR19  21094.385520  -1602.679535  14255.369301   -306.904183
PR20  21546.969567 -11847.687402  -6685.255855   -125.023288
PR21   7740.014610 -13508.334910 -20208.550312   -171.452644
PR22 -11483.514483  -6451.289028 -21818.035222    -57.793949
PR24 -20628.652610  13200.673667   7132.977117    -89.793379
EOF
